start=new Date('2022-12-06T00:00:00.000Z').valueOf();
sats=[{"ELEMENT_SET_NO":"999","SITE":"AFETR","TIME_SYSTEM":"UTC","FILE":"3682099","RCS_SIZE":"LARGE","LAUNCH_DATE":"2020-08-18","GP_ID":"219592710","OBJECT_TYPE":"PAYLOAD","REV_AT_EPOCH":"12722","TLE_LINE1":"1 46129U 20057N   22339.38890635  .00001566  00000-0  12405-3 0  9990","COUNTRY_CODE":"US","EPOCH":"2022-12-05T09:20:01.508640","APOAPSIS":"548.302","EPHEMERIS_TYPE":"0","INCLINATION":"53.0542","DECAY_DATE":null,"TLE_LINE2":"2 46129  53.0542 220.0889 0001546  78.1452 281.9711 15.06394100127227","RA_OF_ASC_NODE":"220.0889","CLASSIFICATION_TYPE":"U","CENTER_NAME":"EARTH","NORAD_CAT_ID":"46129","MEAN_MOTION_DOT":"0.00001566","MEAN_ELEMENT_THEORY":"SGP4","ECCENTRICITY":"0.00015460","PERIOD":"95.593","REF_FRAME":"TEME","MEAN_MOTION_DDOT":"0.0000000000000","PERIAPSIS":"546.161","OBJECT_NAME":"STARLINK-1623","MEAN_MOTION":"15.06394100","BSTAR":"0.00012405000000","OBJECT_ID":"2020-057N","MEAN_ANOMALY":"281.9711","ARG_OF_PERICENTER":"78.1452","SEMIMAJOR_AXIS":"6925.367"},{"OBJECT_ID":"2020-057P","MEAN_MOTION":"15.06398853","BSTAR":"0.00010525000000","REF_FRAME":"TEME","MEAN_MOTION_DDOT":"0.0000000000000","OBJECT_NAME":"STARLINK-1624","PERIAPSIS":"546.008","PERIOD":"95.592","SEMIMAJOR_AXIS":"6925.352","ARG_OF_PERICENTER":"59.8851","MEAN_ANOMALY":"300.2311","CLASSIFICATION_TYPE":"U","CENTER_NAME":"EARTH","TLE_LINE2":"2 46130  53.0545 218.1466 0001746  59.8851 300.2311 15.06398853128537","RA_OF_ASC_NODE":"218.1466","ECCENTRICITY":"0.00017460","MEAN_MOTION_DOT":"0.00001286","MEAN_ELEMENT_THEORY":"SGP4","NORAD_CAT_ID":"46130","EPOCH":"2022-12-05T19:41:01.465440","TLE_LINE1":"1 46130U 20057P   22339.82015585  .00001286  00000-0  10525-3 0  9994","REV_AT_EPOCH":"12853","COUNTRY_CODE":"US","EPHEMERIS_TYPE":"0","INCLINATION":"53.0545","DECAY_DATE":null,"APOAPSIS":"548.426","FILE":"3682465","TIME_SYSTEM":"UTC","ELEMENT_SET_NO":"999","SITE":"AFETR","OBJECT_TYPE":"PAYLOAD","GP_ID":"219622856","RCS_SIZE":"LARGE","LAUNCH_DATE":"2020-08-18"},{"ARG_OF_PERICENTER":"64.9147","MEAN_ANOMALY":"295.2003","SEMIMAJOR_AXIS":"6925.362","REF_FRAME":"TEME","MEAN_MOTION_DDOT":"0.0000000000000","PERIAPSIS":"546.151","OBJECT_NAME":"STARLINK-1625","PERIOD":"95.592","OBJECT_ID":"2020-057Q","MEAN_MOTION":"15.06395612","BSTAR":"0.00014371000000","MEAN_ELEMENT_THEORY":"SGP4","MEAN_MOTION_DOT":"0.00001859","NORAD_CAT_ID":"46131","ECCENTRICITY":"0.00015540","TLE_LINE2":"2 46131  53.0544 241.9589 0001554  64.9147 295.2003 15.06395612128136","RA_OF_ASC_NODE":"241.9589","CLASSIFICATION_TYPE":"U","CENTER_NAME":"EARTH","APOAPSIS":"548.303","EPHEMERIS_TYPE":"0","INCLINATION":"53.0544","DECAY_DATE":null,"REV_AT_EPOCH":"12813","TLE_LINE1":"1 46131U 20057Q   22338.97054777  .00001859  00000-0  14371-3 0  9995","COUNTRY_CODE":"US","EPOCH":"2022-12-04T23:17:35.327328","RCS_SIZE":"LARGE","LAUNCH_DATE":"2020-08-18","OBJECT_TYPE":"PAYLOAD","GP_ID":"219592453","TIME_SYSTEM":"UTC","SITE":"AFETR","ELEMENT_SET_NO":"999","FILE":"3682099"},{"LAUNCH_DATE":"2020-08-18","RCS_SIZE":"LARGE","OBJECT_TYPE":"PAYLOAD","GP_ID":"219624354","TIME_SYSTEM":"UTC","ELEMENT_SET_NO":"999","SITE":"AFETR","FILE":"3682465","APOAPSIS":"548.269","DECAY_DATE":null,"EPHEMERIS_TYPE":"0","INCLINATION":"53.0542","COUNTRY_CODE":"US","TLE_LINE1":"1 46132U 20057R   22339.80540316 -.00000226  00000-0  37085-5 0  9995","REV_AT_EPOCH":"12798","EPOCH":"2022-12-05T19:19:46.833024","MEAN_ELEMENT_THEORY":"SGP4","MEAN_MOTION_DOT":"-0.00000226","NORAD_CAT_ID":"46132","ECCENTRICITY":"0.00015930","RA_OF_ASC_NODE":"258.2218","TLE_LINE2":"2 46132  53.0542 258.2218 0001593  52.8157 307.2977 15.06415677127985","CENTER_NAME":"EARTH","CLASSIFICATION_TYPE":"U","ARG_OF_PERICENTER":"52.8157","MEAN_ANOMALY":"307.2977","SEMIMAJOR_AXIS":"6925.301","OBJECT_NAME":"STARLINK-1630","PERIAPSIS":"546.062","REF_FRAME":"TEME","MEAN_MOTION_DDOT":"0.0000000000000","PERIOD":"95.591","OBJECT_ID":"2020-057R","BSTAR":"0.00000370850000","MEAN_MOTION":"15.06415677"},{"ECCENTRICITY":"0.00013960","MEAN_ELEMENT_THEORY":"SGP4","MEAN_MOTION_DOT":"0.00002729","NORAD_CAT_ID":"46133","CLASSIFICATION_TYPE":"U","CENTER_NAME":"EARTH","TLE_LINE2":"2 46133  53.0542 220.0167 0001396  76.1171 283.9973 15.06402885128470","RA_OF_ASC_NODE":"220.0167","SEMIMAJOR_AXIS":"6925.340","ARG_OF_PERICENTER":"76.1171","MEAN_ANOMALY":"283.9973","OBJECT_ID":"2020-057S","MEAN_MOTION":"15.06402885","BSTAR":"0.00020204000000","REF_FRAME":"TEME","MEAN_MOTION_DDOT":"0.0000000000000","PERIAPSIS":"546.238","OBJECT_NAME":"STARLINK-1637","PERIOD":"95.592","OBJECT_TYPE":"PAYLOAD","GP_ID":"219592214","RCS_SIZE":"LARGE","LAUNCH_DATE":"2020-08-18","FILE":"3682099","TIME_SYSTEM":"UTC","ELEMENT_SET_NO":"999","SITE":"AFETR","EPHEMERIS_TYPE":"0","INCLINATION":"53.0542","DECAY_DATE":null,"APOAPSIS":"548.171","EPOCH":"2022-12-05T09:46:33.124512","TLE_LINE1":"1 46133U 20057S   22339.40732783  .00002729  00000-0  20204-3 0  9995","COUNTRY_CODE":"US","REV_AT_EPOCH":"12847"},{"EPHEMERIS_TYPE":"0","INCLINATION":"53.0540","DECAY_DATE":null,"APOAPSIS":"548.131","EPOCH":"2022-12-05T19:23:44.194560","TLE_LINE1":"1 46134U 20057T   22339.80815040 -.00000265  00000-0  10867-5 0  9998","REV_AT_EPOCH":"12728","COUNTRY_CODE":"US","GP_ID":"219623356","OBJECT_TYPE":"PAYLOAD","RCS_SIZE":"LARGE","LAUNCH_DATE":"2020-08-18","FILE":"3682465","ELEMENT_SET_NO":"999","SITE":"AFETR","TIME_SYSTEM":"UTC","SEMIMAJOR_AXIS":"6925.328","MEAN_ANOMALY":"275.6457","ARG_OF_PERICENTER":"84.4687","MEAN_MOTION":"15.06406818","BSTAR":"0.00000108670000","OBJECT_ID":"2020-057T","PERIOD":"95.592","REF_FRAME":"TEME","MEAN_MOTION_DDOT":"0.0000000000000","OBJECT_NAME":"STARLINK-1638","PERIAPSIS":"546.254","ECCENTRICITY":"0.00013550","NORAD_CAT_ID":"46134","MEAN_ELEMENT_THEORY":"SGP4","MEAN_MOTION_DOT":"-0.00000265","CLASSIFICATION_TYPE":"U","CENTER_NAME":"EARTH","TLE_LINE2":"2 46134  53.0540 218.2037 0001355  84.4687 275.6457 15.06406818127286","RA_OF_ASC_NODE":"218.2037"},{"ARG_OF_PERICENTER":"73.2132","MEAN_ANOMALY":"286.9061","SEMIMAJOR_AXIS":"6925.330","MEAN_MOTION_DDOT":"0.0000000000000","REF_FRAME":"TEME","PERIAPSIS":"545.901","OBJECT_NAME":"STARLINK-1639","PERIOD":"95.592","OBJECT_ID":"2020-057U","MEAN_MOTION":"15.06406066","BSTAR":"0.00013516000000","MEAN_ELEMENT_THEORY":"SGP4","MEAN_MOTION_DOT":"0.00001732","NORAD_CAT_ID":"46135","ECCENTRICITY":"0.00018680","TLE_LINE2":"2 46135  53.0554 218.1416 0001868  73.2132 286.9061 15.06406066127283","RA_OF_ASC_NODE":"218.1416","CLASSIFICATION_TYPE":"U","CENTER_NAME":"EARTH","APOAPSIS":"548.489","INCLINATION":"53.0554","EPHEMERIS_TYPE":"0","DECAY_DATE":null,"TLE_LINE1":"1 46135U 20057U   22339.82383304  .00001732  00000-0  13516-3 0  9995","REV_AT_EPOCH":"12728","COUNTRY_CODE":"US","EPOCH":"2022-12-05T19:46:19.174656","RCS_SIZE":"LARGE","LAUNCH_DATE":"2020-08-18","OBJECT_TYPE":"PAYLOAD","GP_ID":"219623107","TIME_SYSTEM":"UTC","ELEMENT_SET_NO":"999","SITE":"AFETR","FILE":"3682465"},{"MEAN_ELEMENT_THEORY":"SGP4","MEAN_MOTION_DOT":"0.00002477","NORAD_CAT_ID":"46136","ECCENTRICITY":"0.00019990","TLE_LINE2":"2 46136  53.0570 249.6844 0001999  49.6367 310.4796 15.06401781126813","RA_OF_ASC_NODE":"249.6844","CLASSIFICATION_TYPE":"U","CENTER_NAME":"EARTH","ARG_OF_PERICENTER":"49.6367","MEAN_ANOMALY":"310.4796","SEMIMAJOR_AXIS":"6925.343","MEAN_MOTION_DDOT":"0.0000000000000","REF_FRAME":"TEME","PERIAPSIS":"545.824","OBJECT_NAME":"STARLINK-1643","PERIOD":"95.592","OBJECT_ID":"2020-057V","MEAN_MOTION":"15.06401781","BSTAR":"0.00018516000000","RCS_SIZE":"LARGE","LAUNCH_DATE":"2020-08-18","OBJECT_TYPE":"PAYLOAD","GP_ID":"219623854","TIME_SYSTEM":"UTC","SITE":"AFETR","ELEMENT_SET_NO":"999","FILE":"3682465","APOAPSIS":"548.592","EPHEMERIS_TYPE":"0","INCLINATION":"53.0570","DECAY_DATE":null,"COUNTRY_CODE":"US","TLE_LINE1":"1 46136U 20057V   22339.47364788  .00002477  00000-0  18516-3 0  9994","REV_AT_EPOCH":"12681","EPOCH":"2022-12-05T11:22:03.176832"},{"OBJECT_NAME":"STARLINK-1586","PERIAPSIS":"545.198","REF_FRAME":"TEME","MEAN_MOTION_DDOT":"0.0000000000000","PERIOD":"95.592","OBJECT_ID":"2020-057W","BSTAR":"0.00010262000000","MEAN_MOTION":"15.06396578","ARG_OF_PERICENTER":"57.3576","MEAN_ANOMALY":"302.7695","SEMIMAJOR_AXIS":"6925.359","RA_OF_ASC_NODE":"239.9217","TLE_LINE2":"2 46137  53.0536 239.9217 0002926  57.3576 302.7695 15.06396578126944","CENTER_NAME":"EARTH","CLASSIFICATION_TYPE":"U","MEAN_ELEMENT_THEORY":"SGP4","MEAN_MOTION_DOT":"0.00001247","NORAD_CAT_ID":"46137","ECCENTRICITY":"0.00029260","TLE_LINE1":"1 46137U 20057W   22339.42760427  .00001247  00000-0  10262-3 0  9994","REV_AT_EPOCH":"12694","COUNTRY_CODE":"US","EPOCH":"2022-12-05T10:15:45.008928","APOAPSIS":"549.250","DECAY_DATE":null,"INCLINATION":"53.0536","EPHEMERIS_TYPE":"0","TIME_SYSTEM":"UTC","ELEMENT_SET_NO":"999","SITE":"AFETR","FILE":"3682099","LAUNCH_DATE":"2020-08-18","RCS_SIZE":"LARGE","OBJECT_TYPE":"PAYLOAD","GP_ID":"219592711"},{"APOAPSIS":"548.353","EPHEMERIS_TYPE":"0","INCLINATION":"53.0542","DECAY_DATE":null,"REV_AT_EPOCH":"12671","TLE_LINE1":"1 46138U 20057X   22339.75749270  .00001375  00000-0  11119-3 0  9998","COUNTRY_CODE":"US","EPOCH":"2022-12-05T18:10:47.369280","RCS_SIZE":"LARGE","LAUNCH_DATE":"2020-08-18","OBJECT_TYPE":"PAYLOAD","GP_ID":"219622857","TIME_SYSTEM":"UTC","SITE":"AFETR","ELEMENT_SET_NO":"999","FILE":"3682465","ARG_OF_PERICENTER":"65.1344","MEAN_ANOMALY":"294.9816","SEMIMAJOR_AXIS":"6925.349","REF_FRAME":"TEME","MEAN_MOTION_DDOT":"0.0000000000000","OBJECT_NAME":"STARLINK-1590","PERIAPSIS":"546.075","PERIOD":"95.592","OBJECT_ID":"2020-057X","MEAN_MOTION":"15.06399848","BSTAR":"0.00011119000000","MEAN_ELEMENT_THEORY":"SGP4","MEAN_MOTION_DOT":"0.00001375","NORAD_CAT_ID":"46138","ECCENTRICITY":"0.00016440","TLE_LINE2":"2 46138  53.0542 258.4399 0001644  65.1344 294.9816 15.06399848126710","RA_OF_ASC_NODE":"258.4399","CLASSIFICATION_TYPE":"U","CENTER_NAME":"EARTH"}];
